FENGYUN 1C DEB          
1 29958U 99025KG  23258.58028834  .00000649  00000+0  36673-3 0  9992
2 29958  98.7315 284.4425 0056841 147.1253 213.3475 14.12782230858910
FENGYUN 1C DEB          
1 29959U 99025KH  23258.57357470  .00000587  00000+0  38690-3 0  9995
2 29959  98.9102 296.7763 0043788 101.7615  53.0500 14.05201005854329
FENGYUN 1C DEB          
1 29960U 99025KJ  23257.76027082  .00001075  00000+0  56453-3 0  9990
2 29960  98.5736 262.6629 0096295 117.6674  56.8169 14.13764655858572
FENGYUN 1C DEB          
1 29961U 99025KK  23258.60390445  .00000479  00000+0  21811-3 0  9998
2 29961  99.0575 113.1865 0076506 144.6619 215.9664 14.24976791866388
FENGYUN 1C DEB          
1 29962U 99025KL  23258.54145689  .00000270  00000+0  17969-3 0  9998
2 29962  98.8101 279.1651 0111575   6.3906 146.1608 14.06201473854801
FENGYUN 1C DEB          
1 29963U 99025KM  23258.57800563  .00001765  00000+0  76001-3 0  9993
2 29963  99.0872 103.4726 0053684 144.1864 280.7095 14.25169852864757
FENGYUN 1C DEB          
1 29964U 99025KN  23258.54394545  .00001793  00000+0  11690-2 0  9992
2 29964  98.4379 154.5961 0142548  55.6164 305.8388 13.98647480848481
FENGYUN 1C DEB          
1 29965U 99025KP  23258.61620840  .00000528  00000+0  38670-3 0  9994
2 29965  98.9446 265.8355 0146999 157.9006 318.9963 13.94998125848520
FENGYUN 1C DEB          
1 29966U 99025KQ  23258.30987742  .00001655  00000+0  75550-3 0  9998
2 29966  99.4527  29.2849 0042113 144.8962 215.5002 14.22619732863783
FENGYUN 1C DEB          
1 29967U 99025KR  23257.96969759  .00003456  00000+0  17550-2 0  9994
2 29967  98.9166 320.9875 0087000 120.5445  55.3956 14.14627060855949
FENGYUN 1C DEB          
1 29968U 99025KS  23258.56217355  .00000157  00000+0  11611-3 0  9998
2 29968  98.7657 261.0182 0092037 138.1537 347.5587 14.06270059855312
FENGYUN 1C DEB          
1 29969U 99025KT  23258.14345536  .00003793  00000+0  17199-2 0  9991
2 29969  98.8173 326.8533 0049599 273.4217 147.1106 14.21846479859698
FENGYUN 1C DEB          
1 29970U 99025KU  23258.56024486  .00001766  00000+0  55762-3 0  9994
2 29970  98.8254 150.8721 0100152 104.4986  13.9690 14.38708466873205
FENGYUN 1C DEB          
1 29971U 99025KV  23258.59268366  .00001826  00000+0  98815-3 0  9998
2 29971  98.7894 303.3632 0025252 355.5960 158.7151 14.13611559857479
FENGYUN 1C DEB          
1 29972U 99025KW  23258.77808258  .00006685  00000+0  16974-2 0  9992
2 29972  98.8632 203.1752 0087752 346.6471  78.0379 14.48809505875689
FENGYUN 1C DEB          
1 29973U 99025KX  23258.59852536  .00001085  00000+0  71141-3 0  9998
2 29973  98.8453 268.9904 0060576 282.7325 200.5454 14.03287002852260
