[{"OBJECT_NAME":"FENGYUN 1C DEB","OBJECT_ID":"1999-025KG","EPOCH":"2023-09-15T13:55:36.912576","MEAN_MOTION":14.1278223,"ECCENTRICITY":0.0056841,"INCLINATION":98.7315,"RA_OF_ASC_NODE":284.4425,"ARG_OF_PERICENTER":147.1253,"MEAN_ANOMALY":213.3475,"EPHEMERIS_TYPE":0,"CLASSIFICATION_TYPE":"U","NORAD_CAT_ID":29958,"ELEMENT_SET_NO":999,"REV_AT_EPOCH":85891,"BSTAR":0.00036673,"MEAN_MOTION_DOT":6.49e-6,"MEAN_MOTION_DDOT":0},{"OBJECT_NAME":"FENGYUN 1C DEB","OBJECT_ID":"1999-025KH","EPOCH":"2023-09-15T13:45:56.854080","MEAN_MOTION":14.05201005,"ECCENTRICITY":0.0043788,"INCLINATION":98.9102,"RA_OF_ASC_NODE":296.7763,"ARG_OF_PERICENTER":101.7615,"MEAN_ANOMALY":53.05,"EPHEMERIS_TYPE":0,"CLASSIFICATION_TYPE":"U","NORAD_CAT_ID":29959,"ELEMENT_SET_NO":999,"REV_AT_EPOCH":85432,"BSTAR":0.0003869,"MEAN_MOTION_DOT":5.87e-6,"MEAN_MOTION_DDOT":0},{"OBJECT_NAME":"FENGYUN 1C DEB","OBJECT_ID":"1999-025KJ","EPOCH":"2023-09-14T18:14:47.398848","MEAN_MOTION":14.13764655,"ECCENTRICITY":0.0096295,"INCLINATION":98.5736,"RA_OF_ASC_NODE":262.6629,"ARG_OF_PERICENTER":117.6674,"MEAN_ANOMALY":56.8169,"EPHEMERIS_TYPE":0,"CLASSIFICATION_TYPE":"U","NORAD_CAT_ID":29960,"ELEMENT_SET_NO":999,"REV_AT_EPOCH":85857,"BSTAR":0.00056453,"MEAN_MOTION_DOT":1.075e-5,"MEAN_MOTION_DDOT":0},{"OBJECT_NAME":"FENGYUN 1C DEB","OBJECT_ID":"1999-025KK","EPOCH":"2023-09-15T14:29:37.344480","MEAN_MOTION":14.24976791,"ECCENTRICITY":0.0076506,"INCLINATION":99.0575,"RA_OF_ASC_NODE":113.1865,"ARG_OF_PERICENTER":144.6619,"MEAN_ANOMALY":215.9664,"EPHEMERIS_TYPE":0,"CLASSIFICATION_TYPE":"U","NORAD_CAT_ID":29961,"ELEMENT_SET_NO":999,"REV_AT_EPOCH":86638,"BSTAR":0.00021811,"MEAN_MOTION_DOT":4.79e-6,"MEAN_MOTION_DDOT":0},{"OBJECT_NAME":"FENGYUN 1C DEB","OBJECT_ID":"1999-025KL","EPOCH":"2023-09-15T12:59:41.875296","MEAN_MOTION":14.06201473,"ECCENTRICITY":0.0111575,"INCLINATION":98.8101,"RA_OF_ASC_NODE":279.1651,"ARG_OF_PERICENTER":6.3906,"MEAN_ANOMALY":146.1608,"EPHEMERIS_TYPE":0,"CLASSIFICATION_TYPE":"U","NORAD_CAT_ID":29962,"ELEMENT_SET_NO":999,"REV_AT_EPOCH":85480,"BSTAR":0.00017969,"MEAN_MOTION_DOT":2.7e-6,"MEAN_MOTION_DDOT":0},{"OBJECT_NAME":"FENGYUN 1C DEB","OBJECT_ID":"1999-025KM","EPOCH":"2023-09-15T13:52:19.686432","MEAN_MOTION":14.25169852,"ECCENTRICITY":0.0053684,"INCLINATION":99.0872,"RA_OF_ASC_NODE":103.4726,"ARG_OF_PERICENTER":144.1864,"MEAN_ANOMALY":280.7095,"EPHEMERIS_TYPE":0,"CLASSIFICATION_TYPE":"U","NORAD_CAT_ID":29963,"ELEMENT_SET_NO":999,"REV_AT_EPOCH":86475,"BSTAR":0.00076001,"MEAN_MOTION_DOT":1.765e-5,"MEAN_MOTION_DDOT":0},{"OBJECT_NAME":"FENGYUN 1C DEB","OBJECT_ID":"1999-025KN","EPOCH":"2023-09-15T13:03:16.886880","MEAN_MOTION":13.9864748,"ECCENTRICITY":0.0142548,"INCLINATION":98.4379,"RA_OF_ASC_NODE":154.5961,"ARG_OF_PERICENTER":55.6164,"MEAN_ANOMALY":305.8388,"EPHEMERIS_TYPE":0,"CLASSIFICATION_TYPE":"U","NORAD_CAT_ID":29964,"ELEMENT_SET_NO":999,"REV_AT_EPOCH":84848,"BSTAR":0.001169,"MEAN_MOTION_DOT":1.793e-5,"MEAN_MOTION_DDOT":0},{"OBJECT_NAME":"FENGYUN 1C DEB","OBJECT_ID":"1999-025KP","EPOCH":"2023-09-15T14:47:20.405760","MEAN_MOTION":13.94998125,"ECCENTRICITY":0.0146999,"INCLINATION":98.9446,"RA_OF_ASC_NODE":265.8355,"ARG_OF_PERICENTER":157.9006,"MEAN_ANOMALY":318.9963,"EPHEMERIS_TYPE":0,"CLASSIFICATION_TYPE":"U","NORAD_CAT_ID":29965,"ELEMENT_SET_NO":999,"REV_AT_EPOCH":84852,"BSTAR":0.0003867,"MEAN_MOTION_DOT":5.28e-6,"MEAN_MOTION_DDOT":0},{"OBJECT_NAME":"FENGYUN 1C DEB","OBJECT_ID":"1999-025KQ","EPOCH":"2023-09-15T07:26:13.409088","MEAN_MOTION":14.22619732,"ECCENTRICITY":0.0042113,"INCLINATION":99.4527,"RA_OF_ASC_NODE":29.2849,"ARG_OF_PERICENTER":144.8962,"MEAN_ANOMALY":215.5002,"EPHEMERIS_TYPE":0,"CLASSIFICATION_TYPE":"U","NORAD_CAT_ID":29966,"ELEMENT_SET_NO":999,"REV_AT_EPOCH":86378,"BSTAR":0.0007555,"MEAN_MOTION_DOT":1.655e-5,"MEAN_MOTION_DDOT":0},{"OBJECT_NAME":"FENGYUN 1C DEB","OBJECT_ID":"1999-025KR","EPOCH":"2023-09-14T23:16:21.871776","MEAN_MOTION":14.1462706,"ECCENTRICITY":0.0087,"INCLINATION":98.9166,"RA_OF_ASC_NODE":320.9875,"ARG_OF_PERICENTER":120.5445,"MEAN_ANOMALY":55.3956,"EPHEMERIS_TYPE":0,"CLASSIFICATION_TYPE":"U","NORAD_CAT_ID":29967,"ELEMENT_SET_NO":999,"REV_AT_EPOCH":85594,"BSTAR":0.001755,"MEAN_MOTION_DOT":3.456e-5,"MEAN_MOTION_DDOT":0},{"OBJECT_NAME":"FENGYUN 1C DEB","OBJECT_ID":"1999-025KS","EPOCH":"2023-09-15T13:29:31.794720","MEAN_MOTION":14.06270059,"ECCENTRICITY":0.0092037,"INCLINATION":98.7657,"RA_OF_ASC_NODE":261.0182,"ARG_OF_PERICENTER":138.1537,"MEAN_ANOMALY":347.5587,"EPHEMERIS_TYPE":0,"CLASSIFICATION_TYPE":"U","NORAD_CAT_ID":29968,"ELEMENT_SET_NO":999,"REV_AT_EPOCH":85531,"BSTAR":0.00011611,"MEAN_MOTION_DOT":1.57e-6,"MEAN_MOTION_DDOT":0},{"OBJECT_NAME":"FENGYUN 1C DEB","OBJECT_ID":"1999-025KT","EPOCH":"2023-09-15T03:26:34.543104","MEAN_MOTION":14.21846479,"ECCENTRICITY":0.0049599,"INCLINATION":98.8173,"RA_OF_ASC_NODE":326.8533,"ARG_OF_PERICENTER":273.4217,"MEAN_ANOMALY":147.1106,"EPHEMERIS_TYPE":0,"CLASSIFICATION_TYPE":"U","NORAD_CAT_ID":29969,"ELEMENT_SET_NO":999,"REV_AT_EPOCH":85969,"BSTAR":0.0017199,"MEAN_MOTION_DOT":3.793e-5,"MEAN_MOTION_DDOT":0},{"OBJECT_NAME":"FENGYUN 1C DEB","OBJECT_ID":"1999-025KU","EPOCH":"2023-09-15T13:26:45.155904","MEAN_MOTION":14.38708466,"ECCENTRICITY":0.0100152,"INCLINATION":98.8254,"RA_OF_ASC_NODE":150.8721,"ARG_OF_PERICENTER":104.4986,"MEAN_ANOMALY":13.969,"EPHEMERIS_TYPE":0,"CLASSIFICATION_TYPE":"U","NORAD_CAT_ID":29970,"ELEMENT_SET_NO":999,"REV_AT_EPOCH":87320,"BSTAR":0.00055762,"MEAN_MOTION_DOT":1.766e-5,"MEAN_MOTION_DDOT":0},{"OBJECT_NAME":"FENGYUN 1C DEB","OBJECT_ID":"1999-025KV","EPOCH":"2023-09-15T14:13:27.868224","MEAN_MOTION":14.13611559,"ECCENTRICITY":0.0025252,"INCLINATION":98.7894,"RA_OF_ASC_NODE":303.3632,"ARG_OF_PERICENTER":355.596,"MEAN_ANOMALY":158.7151,"EPHEMERIS_TYPE":0,"CLASSIFICATION_TYPE":"U","NORAD_CAT_ID":29971,"ELEMENT_SET_NO":999,"REV_AT_EPOCH":85747,"BSTAR":0.00098815,"MEAN_MOTION_DOT":1.826e-5,"MEAN_MOTION_DDOT":0},{"OBJECT_NAME":"FENGYUN 1C DEB","OBJECT_ID":"1999-025KW","EPOCH":"2023-09-15T18:40:26.334912","MEAN_MOTION":14.48809505,"ECCENTRICITY":0.0087752,"INCLINATION":98.8632,"RA_OF_ASC_NODE":203.1752,"ARG_OF_PERICENTER":346.6471,"MEAN_ANOMALY":78.0379,"EPHEMERIS_TYPE":0,"CLASSIFICATION_TYPE":"U","NORAD_CAT_ID":29972,"ELEMENT_SET_NO":999,"REV_AT_EPOCH":87568,"BSTAR":0.0016974,"MEAN_MOTION_DOT":6.685e-5,"MEAN_MOTION_DDOT":0},{"OBJECT_NAME":"FENGYUN 1C DEB","OBJECT_ID":"1999-025KX","EPOCH":"2023-09-15T14:21:52.591104","MEAN_MOTION":14.03287002,"ECCENTRICITY":0.0060576,"INCLINATION":98.8453,"RA_OF_ASC_NODE":268.9904,"ARG_OF_PERICENTER":282.7325,"MEAN_ANOMALY":200.5454,"EPHEMERIS_TYPE":0,"CLASSIFICATION_TYPE":"U","NORAD_CAT_ID":29973,"ELEMENT_SET_NO":999,"REV_AT_EPOCH":85226,"BSTAR":0.00071141,"MEAN_MOTION_DOT":1.085e-5,"MEAN_MOTION_DDOT":0}]
